STARLINK-31723          
1 59553U 24074V   26068.16037374 -.00001708  00000+0 -52544-4 0  9998
2 59553  43.0038 346.4895 0001370 262.8323  97.2372 15.27587631105936
FLOCK 4G-18             
1 62680U 25009BZ  26068.19114186  .00011766  00000+0  44319-3 0  9995
2 62680  97.4054 150.5008 0004100 335.7331  24.3715 15.27241676121267
